{"epoch":1784799577,"count":18318,"objects":[{"id":"54755","name":"SES MPOWER-A F1","type":"PAYLOAD","l1":"1 54755U 22174A   26203.93368001 -.00000024  00000-0  00000-0 0  9992","l2":"2 54755   0.0485 338.8397 0006684 152.3437 246.5068  5.00114794 67145"},{"id":"54756","name":"SES MPOWER-A F2","type":"PAYLOAD","l1":"1 54756U 22174B   26203.89059835 -.00000024  00000-0  00000-0 0  9990","l2":"2 54756   0.0444 339.6320 0005766 135.5876 244.8379  5.00114961 67227"},{"id":"56367","name":"O3BF04","type":"PAYLOAD","l1":"1 56367U 23059A   26203.75492833 -.00000024  00000-0  00000-0 0  9997","l2":"2 56367   0.0628 348.7145 0007730 134.8562 236.5008  5.00115427 60389"},{"id":"56368","name":"O3BF03","type":"PAYLOAD","l1":"1 56368U 23059B   26203.78804520 -.00000024  00000-0  00000-0 0  9991","l2":"2 56368   0.0635 347.8722 0006646 129.3618 242.8315  5.00116480 56516"},{"id":"58346","name":"O3B MPOWER F05","type":"PAYLOAD","l1":"1 58346U 23175A   26203.48926857 -.00000024  00000-0  00000-0 0  9993","l2":"2 58346   0.0533   8.4153 0005605 130.7980 220.8263  5.00115955 51206"},{"id":"58347","name":"O3B MPOWER F06","type":"PAYLOAD","l1":"1 58347U 23175B   26203.78963949 -.00000024  00000-0  00000-0 0  9990","l2":"2 58347   0.0546   0.0193 0004432 120.1070 239.9154  5.00115802 50135"},{"id":"62362","name":"O3B MPOWER F7","type":"PAYLOAD","l1":"1 62362U 24244A   26203.65615638 -.00000024  00000-0  00000-0 0  9995","l2":"2 62362   0.0655 341.3994 0005923 135.0371 243.6220  5.00115385 28309"},{"id":"62363","name":"O3B MPOWER F8","type":"PAYLOAD","l1":"1 62363U 24244B   26203.62311069 -.00000024  00000-0  00000-0 0  9994","l2":"2 62363   0.0154  12.5409 0005678  97.0760 250.4421  5.00115110 22644"},{"id":"64866","name":"O3B MPOWER F09","type":"PAYLOAD","l1":"1 64866U 25153A   26202.95681012 -.00000024  00000-0  00000-0 0  9997","l2":"2 64866   0.0620   4.4458 0006797 133.3971 222.2070  5.00115712 21304"},{"id":"64867","name":"O3B MPOWER F10","type":"PAYLOAD","l1":"1 64867U 25153B   26203.72243872 -.00000024  00000-0  00000-0 0  9992","l2":"2 64867   0.0590   1.1252 0002620 246.6950 112.1497  5.00114941 23814"}]}